[{"OBJECT_NAME":"LEMUR-2-DEMBITZ","OBJECT_ID":"2017-042T","EPOCH":"2026-03-09T11:23:53.232288","MEAN_MOTION":15.26947128,"ECCENTRICITY":0.00069617,"INCLINATION":97.3807,"RA_OF_ASC_NODE":250.9241,"ARG_OF_PERICENTER":17.1421,"MEAN_ANOMALY":343.0051,"EPHEMERIS_TYPE":0,"CLASSIFICATION_TYPE":"U","NORAD_CAT_ID":42842,"ELEMENT_SET_NO":999,"REV_AT_EPOCH":47311,"BSTAR":0.00076560825,"MEAN_MOTION_DOT":0.00020231,"MEAN_MOTION_DDOT":0},{"OBJECT_NAME":"STARLINK-31712","OBJECT_ID":"2024-071H","EPOCH":"2026-03-09T03:58:58.275264","MEAN_MOTION":15.27576127,"ECCENTRICITY":8.367e-5,"INCLINATION":42.9962,"RA_OF_ASC_NODE":354.1129,"ARG_OF_PERICENTER":63.8061,"MEAN_ANOMALY":296.2877,"EPHEMERIS_TYPE":0,"CLASSIFICATION_TYPE":"U","NORAD_CAT_ID":59491,"ELEMENT_SET_NO":999,"REV_AT_EPOCH":10799,"BSTAR":-0.00011946925,"MEAN_MOTION_DOT":-3.547e-5,"MEAN_MOTION_DDOT":0}]
